{
  "links" : {
    "next" : "https://api.nasa.gov/neo/rest/v1/feed?start_date=2000-05-09&end_date=2000-05-09&detailed=true&api_key=t0TVs3DtDT2H8Oy2Zy8m2eVrNsAVKAexjcZXUckd",
    "prev" : "https://api.nasa.gov/neo/rest/v1/feed?start_date=2000-05-07&end_date=2000-05-07&detailed=true&api_key=t0TVs3DtDT2H8Oy2Zy8m2eVrNsAVKAexjcZXUckd",
    "self" : "https://api.nasa.gov/neo/rest/v1/feed?start_date=2000-05-08&end_date=2000-05-08&detailed=true&api_key=t0TVs3DtDT2H8Oy2Zy8m2eVrNsAVKAexjcZXUckd"
  },
  "element_count" : 1,
  "near_earth_objects" : {
    "2000-05-08" : [ {
      "links" : {
        "self" : "https://api.nasa.gov/neo/rest/v1/neo/3631851?api_key=t0TVs3DtDT2H8Oy2Zy8m2eVrNsAVKAexjcZXUckd"
      },
      "neo_reference_id" : "3631851",
      "name" : "(2013 EL28)",
      "nasa_jpl_url" : "http://ssd.jpl.nasa.gov/sbdb.cgi?sstr=3631851",
      "absolute_magnitude_h" : 22.4,
      "estimated_diameter" : {
        "kilometers" : {
          "estimated_diameter_min" : 0.0880146521,
          "estimated_diameter_max" : 0.1968067451
        },
        "meters" : {
          "estimated_diameter_min" : 88.0146520901,
          "estimated_diameter_max" : 196.8067450894
        },
        "miles" : {
          "estimated_diameter_min" : 0.0546897524,
          "estimated_diameter_max" : 0.122290004
        },
        "feet" : {
          "estimated_diameter_min" : 288.7619911632,
          "estimated_diameter_max" : 645.6914415591
        }
      },
      "is_potentially_hazardous_asteroid" : false,
      "close_approach_data" : [ {
        "close_approach_date" : "2000-05-08",
        "epoch_date_close_approach" : 957769200000,
        "relative_velocity" : {
          "kilometers_per_second" : "13.2366841443",
          "kilometers_per_hour" : "47652.0629194822",
          "miles_per_hour" : "29609.138762386"
        },
        "miss_distance" : {
          "astronomical" : "0.4527046088",
          "lunar" : "176.1020965576",
          "kilometers" : "67723648",
          "miles" : "42081524"
        },
        "orbiting_body" : "Earth"
      } ],
      "orbital_data" : {
        "orbit_id" : "33",
        "orbit_determination_date" : "2017-04-06 08:46:31",
        "orbit_uncertainty" : "5",
        "minimum_orbit_intersection" : ".151611",
        "jupiter_tisserand_invariant" : "3.860",
        "epoch_osculation" : "2458000.5",
        "eccentricity" : ".3958845692361922",
        "semi_major_axis" : "1.885278126117637",
        "inclination" : "5.837185656809522",
        "ascending_node_longitude" : "66.59990104366959",
        "orbital_period" : "945.5000798797241",
        "perihelion_distance" : "1.13892560726914",
        "perihelion_argument" : "136.7964831441271",
        "aphelion_distance" : "2.631630644966133",
        "perihelion_time" : "2458287.864265932199",
        "mean_anomaly" : "250.5857990527601",
        "mean_motion" : ".3807508932688775",
        "equinox" : "J2000"
      }
    } ]
  }
}